COMMENT,ORIGINATOR,NORAD_CAT_ID,OBJECT_NAME,OBJECT_TYPE,CLASSIFICATION_TYPE,INTLDES,EPOCH,EPOCH_MICROSECONDS,MEAN_MOTION,ECCENTRICITY,INCLINATION,RA_OF_ASC_NODE,ARG_OF_PERICENTER,MEAN_ANOMALY,EPHEMERIS_TYPE,ELEMENT_SET_NO,REV_AT_EPOCH,BSTAR,MEAN_MOTION_DOT,MEAN_MOTION_DDOT,FILE,TLE_LINE0,TLE_LINE1,TLE_LINE2,OBJECT_ID,OBJECT_NUMBER,SEMIMAJOR_AXIS,PERIOD,APOGEE,PERIGEE,DECAYED
"GENERATED VIA SPACETRACK.ORG API","18 SPCS","55094","SPACEBEE-165","PAYLOAD","U","23001CP","2023-02-25 17:17:04","986240","15.15435323","0.0015507","97.4927","118.0637","34.3577","325.8655","0","999","819","0.00076391","0.00014433","0","3838521","0 SPACEBEE-165","1 55094U 23001CP  23056.72019660  .00014433  00000-0  76391-3 0  9990","2 55094  97.4927 118.0637 0015507  34.3577 325.8655 15.15435323  8190","2023-001CP","55094","6897.794","95.022","530.356","508.963","0"
"GENERATED VIA SPACETRACK.ORG API","18 SPCS","55094","SPACEBEE-165","PAYLOAD","U","23001CP","2023-02-25 17:17:04","986240","15.15435323","0.0015507","97.4927","118.0637","34.3577","325.8655","0","999","819","0.00076391","0.00014433","0","3839003","0 SPACEBEE-165","1 55094U 23001CP  23056.72019660  .00014433  00000-0  76391-3 0  9990","2 55094  97.4927 118.0637 0015507  34.3577 325.8655 15.15435323  8190","2023-001CP","55094","6897.794","95.022","530.356","508.963","0"
"GENERATED VIA SPACETRACK.ORG API","18 SPCS","55094","SPACEBEE-165","PAYLOAD","U","23001CP","2023-02-26 02:47:34","464768","15.15451087","0.0015437","97.4927","118.4545","32.8983","327.3207","0","999","825","0.00092011","0.00017412","0","3841853","0 SPACEBEE-165","1 55094U 23001CP  23057.11637112  .00017412  00000-0  92011-3 0  9999","2 55094  97.4927 118.4545 0015437  32.8983 327.3207 15.15451087  8250","2023-001CP","55094","6897.746","95.021","530.259","508.963","0"
"GENERATED VIA SPACETRACK.ORG API","18 SPCS","55094","SPACEBEE-165","PAYLOAD","U","23001CP","2023-02-26 21:48:32","393664","15.15480469","0.0015349","97.493","119.236","30.2828","329.9288","0","999","837","0.00096357","0.00018254","0","3843143","0 SPACEBEE-165","1 55094U 23001CP  23057.90870826  .00018254  00000-0  96357-3 0  9999","2 55094  97.4930 119.2360 0015349  30.2828 329.9288 15.15480469  8376","2023-001CP","55094","6897.657","95.019","530.109","508.935","0"
"GENERATED VIA SPACETRACK.ORG API","18 SPCS","55094","SPACEBEE-165","PAYLOAD","U","23001CP","2023-02-26 21:48:32","393664","15.15480469","0.0015349","97.493","119.236","30.2828","329.9288","0","999","837","0.00096357","0.00018254","0","3843368","0 SPACEBEE-165","1 55094U 23001CP  23057.90870826  .00018254  00000-0  96357-3 0  9999","2 55094  97.4930 119.2360 0015349  30.2828 329.9288 15.15480469  8376","2023-001CP","55094","6897.657","95.019","530.109","508.935","0"
"GENERATED VIA SPACETRACK.ORG API","18 SPCS","55094","SPACEBEE-165","PAYLOAD","U","23001CP","2023-02-27 04:08:51","342144","15.15498982","0.0015369","97.4929","119.4966","29.56","330.6498","0","999","841","0.0012798","0.00024299","0","3845855","0 SPACEBEE-165","1 55094U 23001CP  23058.17281646  .00024299  00000-0  12798-2 0  9997","2 55094  97.4929 119.4966 0015369  29.5600 330.6498 15.15498982  8415","2023-001CP","55094","6897.601","95.018","530.067","508.865","0"
"GENERATED VIA SPACETRACK.ORG API","18 SPCS","55094","SPACEBEE-165","PAYLOAD","U","23001CP","2023-02-27 04:08:51","342144","15.15498982","0.0015369","97.4929","119.4966","29.56","330.6498","0","999","841","0.0012798","0.00024299","0","3846396","0 SPACEBEE-165","1 55094U 23001CP  23058.17281646  .00024299  00000-0  12798-2 0  9997","2 55094  97.4929 119.4966 0015369  29.5600 330.6498 15.15498982  8415","2023-001CP","55094","6897.601","95.018","530.067","508.865","0"
"GENERATED VIA SPACETRACK.ORG API","18 SPCS","55094","SPACEBEE-165","PAYLOAD","U","23001CP","2023-02-27 21:34:42","206304","15.15543996","0.0015333","97.4931","120.2132","27.269","332.9344","0","999","852","0.0016156","0.00030758","0","3846812","0 SPACEBEE-165","1 55094U 23001CP  23058.89909961  .00030758  00000-0  16156-2 0  9992","2 55094  97.4931 120.2132 0015333  27.2690 332.9344 15.15543996  8521","2023-001CP","55094","6897.465","95.015","529.905","508.754","0"
"GENERATED VIA SPACETRACK.ORG API","18 SPCS","55094","SPACEBEE-165","PAYLOAD","U","23001CP","2023-02-28 03:55:00","232896","15.15560438","0.0015354","97.493","120.474","26.6659","333.5359","0","999","856","0.0015094","0.00028738","0","3847294","0 SPACEBEE-165","1 55094U 23001CP  23059.16319714  .00028738  00000-0  15094-2 0  9999","2 55094  97.4930 120.4740 0015354  26.6659 333.5359 15.15560438  8565","2023-001CP","55094","6897.415","95.014","529.870","508.689","0"
"GENERATED VIA SPACETRACK.ORG API","18 SPCS","55094","SPACEBEE-165","PAYLOAD","U","23001CP","2023-02-28 03:55:00","232896","15.15560438","0.0015354","97.493","120.474","26.6659","333.5359","0","999","856","0.0015094","0.00028738","0","3847542","0 SPACEBEE-165","1 55094U 23001CP  23059.16319714  .00028738  00000-0  15094-2 0  9999","2 55094  97.4930 120.4740 0015354  26.6659 333.5359 15.15560438  8565","2023-001CP","55094","6897.415","95.014","529.870","508.689","0"
"GENERATED VIA SPACETRACK.ORG API","18 SPCS","55094","SPACEBEE-165","PAYLOAD","U","23001CP","2023-02-28 21:20:48","644160","15.15591696","0.0015178","97.4931","121.1907","23.7774","336.4156","0","999","867","0.00093222","0.00017711","0","3847656","0 SPACEBEE-165","1 55094U 23001CP  23059.88945190  .00017711  00000-0  93222-3 0  9990","2 55094  97.4931 121.1907 0015178  23.7774 336.4156 15.15591696  8678","2023-001CP","55094","6897.320","95.012","529.654","508.716","0"
"GENERATED VIA SPACETRACK.ORG API","18 SPCS","55094","SPACEBEE-165","PAYLOAD","U","23001CP","2023-03-01 02:06:01","725408","15.15607944","0.0014772","97.4847","121.3863","23.7665","336.4438","0","999","870","0.0012754","0.00024285","0","3847922","0 SPACEBEE-165","1 55094U 23001CP  23060.08751997  .00024285  00000-0  12754-2 0  9998","2 55094  97.4847 121.3863 0014772  23.7665 336.4438 15.15607944  8706","2023-001CP","55094","6897.271","95.011","529.324","508.947","0"
"GENERATED VIA SPACETRACK.ORG API","18 SPCS","55094","SPACEBEE-165","PAYLOAD","U","23001CP","2023-03-01 03:41:06","22752","15.15601326","0.0015196","97.4933","121.4512","23.0311","337.16","0","999","871","0.00091017","0.00017295","0","3848244","0 SPACEBEE-165","1 55094U 23001CP  23060.15354193  .00017295  00000-0  91017-3 0  9996","2 55094  97.4933 121.4512 0015196  23.0311 337.1600 15.15601326  8714","2023-001CP","55094","6897.291","95.012","529.637","508.674","0"
"GENERATED VIA SPACETRACK.ORG API","18 SPCS","55094","SPACEBEE-165","PAYLOAD","U","23001CP","2023-03-01 21:06:52","831296","15.15628764","0.0015109","97.4931","122.1677","20.6591","339.5249","0","999","882","0.0008534","0.00016221","0","3848834","0 SPACEBEE-165","1 55094U 23001CP  23060.87977814  .00016221  00000-0  85340-3 0  9996","2 55094  97.4931 122.1677 0015109  20.6591 339.5249 15.15628764  8821","2023-001CP","55094","6897.207","95.010","529.493","508.651","0"
"GENERATED VIA SPACETRACK.ORG API","18 SPCS","55094","SPACEBEE-165","PAYLOAD","U","23001CP","2023-03-02 11:22:30","333216","15.15650543","0.0015026","97.4929","122.7537","18.5442","341.6335","0","999","891","0.00086621","0.00016476","0","3849487","0 SPACEBEE-165","1 55094U 23001CP  23061.47396219  .00016476  00000-0  86621-3 0  9992","2 55094  97.4929 122.7537 0015026  18.5442 341.6335 15.15650543  8918","2023-001CP","55094","6897.141","95.009","529.370","508.643","0"
"GENERATED VIA SPACETRACK.ORG API","18 SPCS","55094","SPACEBEE-165","PAYLOAD","U","23001CP","2023-03-03 03:13:11","103456","15.15678448","0.0014962","97.4926","123.4053","15.7469","344.4225","0","999","901","0.0010422","0.00019861","0","3850027","0 SPACEBEE-165","1 55094U 23001CP  23062.13415629  .00019861  00000-0  10422-2 0  9999","2 55094  97.4926 123.4053 0014962  15.7469 344.4225 15.15678448  9017","2023-001CP","55094","6897.057","95.007","529.241","508.602","0"
"GENERATED VIA SPACETRACK.ORG API","18 SPCS","55094","SPACEBEE-165","PAYLOAD","U","23001CP","2023-03-03 03:13:11","103456","15.15678448","0.0014962","97.4926","123.4053","15.7469","344.4225","0","999","901","0.0010422","0.00019861","0","3850163","0 SPACEBEE-165","1 55094U 23001CP  23062.13415629  .00019861  00000-0  10422-2 0  9999","2 55094  97.4926 123.4053 0014962  15.7469 344.4225 15.15678448  9017","2023-001CP","55094","6897.057","95.007","529.241","508.602","0"
"GENERATED VIA SPACETRACK.ORG API","18 SPCS","55094","SPACEBEE-165","PAYLOAD","U","23001CP","2023-03-04 09:19:24","914784","15.15752659","0.0014627","97.4937","124.6435","11.8201","348.3372","0","999","920","0.0016012","0.00030655","0","3850781","0 SPACEBEE-165","1 55094U 23001CP  23063.38848281  .00030655  00000-0  16012-2 0  9996","2 55094  97.4937 124.6435 0014627  11.8201 348.3372 15.15752659  9209","2023-001CP","55094","6896.831","95.002","528.784","508.609","0"
"GENERATED VIA SPACETRACK.ORG API","18 SPCS","55094","SPACEBEE-165","PAYLOAD","U","23001CP","2023-03-04 21:59:54","581280","15.15778306","0.001489","97.4923","125.1634","9.4497","350.7013","0","999","928","0.0013548","0.00025933","0","3851350","0 SPACEBEE-165","1 55094U 23001CP  23063.91660395  .00025933  00000-0  13548-2 0  9997","2 55094  97.4923 125.1634 0014890   9.4497 350.7013 15.15778306  9287","2023-001CP","55094","6896.754","95.001","528.888","508.349","0"
"GENERATED VIA SPACETRACK.ORG API","18 SPCS","55094","SPACEBEE-165","PAYLOAD","U","23001CP","2023-03-04 23:34:58","226304","15.15781858","0.0014884","97.4924","125.2287","9.2303","350.92","0","999","929","0.0013525","0.00025891","0","3851921","0 SPACEBEE-165","1 55094U 23001CP  23063.98261836  .00025891  00000-0  13525-2 0  9999","2 55094  97.4924 125.2287 0014884   9.2303 350.9200 15.15781858  9297","2023-001CP","55094","6896.743","95.000","528.873","508.343","0"
